NORAD_CAT_ID,OBJECT_NAME,OBJECT_TYPE,EPOCH,MEAN_MOTION,ECCENTRICITY,INCLINATION,RA_OF_ASC_NODE,ARG_OF_PERICENTER,MEAN_ANOMALY,BSTAR,MEAN_MOTION_DOT,MEAN_MOTION_DDOT,TLE_LINE0,TLE_LINE1,TLE_LINE2,SEMIMAJOR_AXIS,PERIOD,APOGEE,PERIGEE,DECAYED
51960.0,STARLINK-3691,PAYLOAD,2023-02-14 14:24:55,15.08839562,0.0002756,53.2178,12.9111,98.2243,261.9061,5.7724e-06,-1.97e-06,0.0,0 STARLINK-3691,1 51960U 22025E   23045.60063770 -.00000197  00000-0  57724-5 0  9993,2 51960  53.2178  12.9111 0002756  98.2243 261.9061 15.08839562 52258,6917.882,95.438,541.653,537.84,0.0
51960.0,STARLINK-3691,PAYLOAD,2023-02-15 04:43:22,15.08852021,0.00014,53.217,10.238,118.6668,241.4465,0.00058615,9.056e-05,0.0,0 STARLINK-3691,1 51960U 22025E   23046.19679155  .00009056  00000-0  58615-3 0  9998,2 51960  53.2170  10.2380 0001400 118.6668 241.4465 15.08852021 53439,6917.844,95.437,540.677,538.74,0.0
51960.0,STARLINK-3691,PAYLOAD,2023-02-15 14:15:41,15.08865007,5.99e-05,53.2162,8.4531,120.7034,239.4017,0.0014517,0.00022907,0.0,0 STARLINK-3691,1 51960U 22025E   23046.59422763  .00022907  00000-0  14517-2 0  9995,2 51960  53.2162   8.4531 0000599 120.7034 239.4017 15.08865007 52400,6917.804,95.436,540.083,539.255,0.0
51960.0,STARLINK-3691,PAYLOAD,2023-02-15 20:37:14,15.08851055,0.0001574,53.2159,7.2633,93.5875,266.5297,0.0010066,0.00015773,0.0,0 STARLINK-3691,1 51960U 22025E   23046.85919395  .00015773  00000-0  10066-2 0  9994,2 51960  53.2159   7.2633 0001574  93.5875 266.5297 15.08851055 53534,6917.847,95.437,540.8,538.623,0.0
51960.0,STARLINK-3691,PAYLOAD,2023-02-16 14:06:29,15.08831917,0.0001306,53.2151,3.9875,72.5048,287.6086,0.00023433,3.443e-05,0.0,0 STARLINK-3691,1 51960U 22025E   23047.58783948  .00003443  00000-0  23433-3 0  9992,2 51960  53.2151   3.9875 0001306  72.5048 287.6086 15.08831917 53646,6917.905,95.438,540.674,538.867,0.0
51960.0,STARLINK-3691,PAYLOAD,2023-02-16 23:38:49,15.08811385,0.0001287,53.2157,2.207,83.3472,276.7666,-0.00015066,-2.683e-05,0.0,0 STARLINK-3691,1 51960U 22025E   23047.98528958 -.00002683  00000-0 -15066-3 0  9994,2 51960  53.2157   2.2070 0001287  83.3472 276.7666 15.08811385 53707,6917.968,95.439,540.723,538.943,0.0
51960.0,STARLINK-3691,PAYLOAD,2023-02-17 04:24:58,15.08827763,0.0001262,53.2157,1.3152,86.1779,273.9358,0.00060284,9.316e-05,0.0,0 STARLINK-3691,1 51960U 22025E   23048.18401009  .00009316  00000-0  60284-3 0  9994,2 51960  53.2157   1.3152 0001262  86.1779 273.9358 15.08827763 53739,6917.918,95.438,540.656,538.91,0.0
51960.0,STARLINK-3691,PAYLOAD,2023-02-17 13:57:18,15.08813956,0.0001689,53.2159,359.5311,68.0636,292.0535,0.00054673,8.418e-05,0.0,0 STARLINK-3691,1 51960U 22025E   23048.58146268  .00008418  00000-0  54673-3 0  9998,2 51960  53.2159 359.5311 0001689  68.0636 292.0535 15.08813956 53794,6917.96,95.439,540.993,538.657,0.0
51960.0,STARLINK-3691,PAYLOAD,2023-02-18 02:40:24,15.08811472,0.0001629,53.2154,357.1541,59.9681,300.1472,7.6744e-05,9.33e-06,0.0,0 STARLINK-3691,1 51960U 22025E   23049.11139429  .00000933  00000-0  76744-4 0  9997,2 51960  53.2154 357.1541 0001629  59.9681 300.1472 15.08811472 53872,6917.968,95.439,540.96,538.706,0.0
51960.0,STARLINK-3691,PAYLOAD,2023-02-18 04:15:47,15.08824691,0.0001271,53.2171,356.8518,89.5033,270.6105,0.00037984,5.76e-05,0.0,0 STARLINK-3691,1 51960U 22025E   23049.17762826  .00005760  00000-0  37984-3 0  9991,2 51960  53.2171 356.8518 0001271  89.5033 270.6105 15.08824691 53886,6917.927,95.439,540.671,538.913,0.0
51960.0,STARLINK-3691,PAYLOAD,2023-02-18 13:48:06,15.08836126,0.0001173,53.217,355.0672,92.2107,267.902,0.00078205,0.00012179,0.0,0 STARLINK-3691,1 51960U 22025E   23049.57507083  .00012179  00000-0  78205-3 0  9990,2 51960  53.2170 355.0672 0001173  92.2107 267.9020 15.08836126 52858,6917.892,95.438,540.569,538.946,0.0
51960.0,STARLINK-3691,PAYLOAD,2023-02-19 02:31:10,15.08877762,0.0001214,53.217,352.6918,61.3516,298.7598,0.0014018,0.00022115,0.0,0 STARLINK-3691,1 51960U 22025E   23050.10497817  .00022115  00000-0  14018-2 0  9996,2 51960  53.2170 352.6918 0001214  61.3516 298.7598 15.08877762 54025,6917.765,95.435,540.47,538.79,0.0
51960.0,STARLINK-3691,PAYLOAD,2023-02-19 13:38:50,15.08907937,0.0001261,53.2175,350.6093,64.6131,295.4992,0.0012739,0.00020082,0.0,0 STARLINK-3691,1 51960U 22025E   23050.56863809  .00020082  00000-0  12739-2 0  9993,2 51960  53.2175 350.6093 0001261  64.6131 295.4992 15.08907937 53000,6917.673,95.433,540.41,538.665,0.0
51960.0,STARLINK-3691,PAYLOAD,2023-02-19 23:11:10,15.08866032,0.0001285,53.217,348.8266,13.2143,346.8882,0.00057898,8.945e-05,0.0,0 STARLINK-3691,1 51960U 22025E   23050.96609198  .00008945  00000-0  57898-3 0  9996,2 51960  53.2170 348.8266 0001285  13.2143 346.8882 15.08866032 54151,6917.801,95.436,540.555,538.777,0.0
51960.0,STARLINK-3691,PAYLOAD,2023-02-20 07:08:05,15.0885792,0.0001135,53.2166,347.3386,85.5712,274.541,0.0021802,0.00034598,0.0,0 STARLINK-3691,1 51960U 22025E   23051.29728999  .00034598  00000-0  21802-2 0  9992,2 51960  53.2166 347.3386 0001135  85.5712 274.5410 15.08857920 53116,6917.826,95.436,540.476,538.905,0.0
51960.0,STARLINK-3691,PAYLOAD,2023-02-21 00:37:20,15.08859229,0.0001176,53.2169,344.0683,100.6938,259.4186,0.0016125,0.00025482,0.0,0 STARLINK-3691,1 51960U 22025E   23052.02592994  .00025482  00000-0  16125-2 0  9992,2 51960  53.2169 344.0683 0001176 100.6938 259.4186 15.08859229 54316,6917.822,95.436,540.5,538.873,0.0
51960.0,STARLINK-3691,PAYLOAD,2023-02-21 11:45:01,15.08865271,0.0001199,53.217,341.9867,95.4143,264.6986,0.0011536,0.00018132,0.0,0 STARLINK-3691,1 51960U 22025E   23052.48960532  .00018132  00000-0  11536-2 0  9994,2 51960  53.2170 341.9867 0001199  95.4143 264.6986 15.08865271 54389,6917.803,95.436,540.498,538.839,0.0
51960.0,STARLINK-3691,PAYLOAD,2023-02-21 18:06:34,15.08856342,0.0002009,53.2167,340.7974,76.0715,284.05,0.0012343,0.00019419,0.0,0 STARLINK-3691,1 51960U 22025E   23052.75456871  .00019419  00000-0  12343-2 0  9996,2 51960  53.2167 340.7974 0002009  76.0715 284.0500 15.08856342 54424,6917.83,95.437,541.085,538.306,0.0
51960.0,STARLINK-3691,PAYLOAD,2023-02-22 02:03:30,15.08861338,0.0001092,53.2165,339.3106,77.4688,282.6427,0.0023471,0.00037286,0.0,0 STARLINK-3691,1 51960U 22025E   23053.08576542  .00037286  00000-0  23471-2 0  9997,2 51960  53.2165 339.3106 0001092  77.4688 282.6427 15.08861338 53385,6917.815,95.436,540.436,538.925,0.0
51960.0,STARLINK-3691,PAYLOAD,2023-02-22 19:32:45,15.0884239,0.0001329,53.2165,336.0396,72.3044,287.8094,0.0011974,0.00018821,0.0,0 STARLINK-3691,1 51960U 22025E   23053.81441432  .00018821  00000-0  11974-2 0  9996,2 51960  53.2165 336.0396 0001329  72.3044 287.8094 15.08842390 54580,6917.873,95.437,540.657,538.819,0.0
51960.0,STARLINK-3691,PAYLOAD,2023-02-23 05:05:04,15.08846563,8.56e-05,53.2161,334.2545,90.6708,269.4382,0.00078884,0.00012291,0.0,0 STARLINK-3691,1 51960U 22025E   23054.21185263  .00012291  00000-0  78884-3 0  9997,2 51960  53.2161 334.2545 0000856  90.6708 269.4382 15.08846563 54645,6917.86,95.437,540.317,539.133,0.0
51960.0,STARLINK-3691,PAYLOAD,2023-02-23 17:48:09,15.08850157,0.0001014,53.2165,331.8773,94.9374,265.1734,0.00073983,0.00011509,0.0,0 STARLINK-3691,1 51960U 22025E   23054.74177260  .00011509  00000-0  73983-3 0  9999,2 51960  53.2165 331.8773 0001014  94.9374 265.1734 15.08850157 53634,6917.849,95.437,540.416,539.013,0.0
51960.0,STARLINK-3691,PAYLOAD,2023-02-24 03:20:27,15.08876855,0.000105,53.2159,330.0929,98.4972,261.6139,0.0014011,0.00022103,0.0,0 STARLINK-3691,1 51960U 22025E   23055.13920412  .00022103  00000-0  14011-2 0  9996,2 51960  53.2159 330.0929 0001050  98.4972 261.6139 15.08876855 53693,6917.768,95.435,540.359,538.906,0.0
51960.0,STARLINK-3691,PAYLOAD,2023-02-24 17:38:55,15.08848512,0.0001073,53.2157,327.4168,80.0724,280.039,0.00014613,2.039e-05,0.0,0 STARLINK-3691,1 51960U 22025E   23055.73536625  .00002039  00000-0  14613-3 0  9996,2 51960  53.2157 327.4168 0001073  80.0724 280.0390 15.08848512 54877,6917.854,95.437,540.462,538.977,0.0
51960.0,STARLINK-3691,PAYLOAD,2023-02-25 00:00:28,15.08835517,7.95e-05,53.2157,326.2262,14.6307,345.4708,-8.5794e-05,-1.653e-05,0.0,0 STARLINK-3691,1 51960U 22025E   23056.00032931 -.00001653  00000-0 -85794-4 0  9990,2 51960  53.2157 326.2262 0000795  14.6307 345.4708 15.08835517 54914,6917.894,95.438,540.309,539.209,0.0
51960.0,STARLINK-3691,PAYLOAD,2023-02-25 23:51:16,15.08837837,0.0001141,53.2148,321.7633,78.6053,281.5067,0.00046449,7.112e-05,0.0,0 STARLINK-3691,1 51960U 22025E   23056.99393559  .00007112  00000-0  46449-3 0  9991,2 51960  53.2148 321.7633 0001141  78.6053 281.5067 15.08837837 53970,6917.887,95.438,540.541,538.963,0.0
51960.0,STARLINK-3691,PAYLOAD,2023-02-26 23:42:01,15.08882274,0.0001235,53.2151,317.3038,78.6644,281.4487,0.0012634,0.00019899,0.0,0 STARLINK-3691,1 51960U 22025E   23057.98752139  .00019899  00000-0  12634-2 0  9997,2 51960  53.2151 317.3038 0001235  78.6644 281.4487 15.08882274 55213,6917.751,95.435,540.471,538.762,0.0
51960.0,STARLINK-3691,PAYLOAD,2023-02-27 17:11:15,15.08900454,0.0001334,53.2152,314.0327,72.498,287.6158,0.0020605,0.00032712,0.0,0 STARLINK-3691,1 51960U 22025E   23058.71615043  .00032712  00000-0  20605-2 0  9997,2 51960  53.2152 314.0327 0001334  72.4980 287.6158 15.08900454 55320,6917.696,95.434,540.483,538.638,0.0
51960.0,STARLINK-3691,PAYLOAD,2023-02-28 02:43:33,15.08893449,0.0001225,53.215,312.2466,97.786,262.3271,0.0016326,0.00025828,0.0,0 STARLINK-3691,1 51960U 22025E   23059.11358117  .00025828  00000-0  16326-2 0  9993,2 51960  53.2150 312.2466 0001225  97.7860 262.3271 15.08893449 55385,6917.717,95.434,540.429,538.735,0.0
51960.0,STARLINK-3691,PAYLOAD,2023-02-28 21:48:15,15.08742373,9.25e-05,53.2154,308.6807,89.8164,270.2934,0.00032747,4.914e-05,0.0,0 STARLINK-3691,1 51960U 22025E   23059.90851589  .00004914  00000-0  32747-3 0  9990,2 51960  53.2154 308.6807 0000925  89.8164 270.2934 15.08742373 54418,6918.179,95.444,540.684,539.404,0.0
